ORBCOMM-X [-]           
1 21576U 91050C   24045.18919801  .00000880  00000+0  27949-3 0  9997
2 21576  98.4053 114.3504 0003082 207.3758 152.7270 14.42365525711825
ORBCOMM FM01 [-]        
1 23545U 95017A   24045.14483574  .00013405  00000+0  18404-2 0  9993
2 23545  69.9680 202.0796 0006856 317.7381  42.3239 14.78483379540309
ORBCOMM FM02 [-]        
1 23546U 95017B   24045.48780254  .00010378  00000+0  14415-2 0  9990
2 23546  69.9689 220.5058 0008799 316.1261  43.9188 14.78070025539952
ORBCOMM FM08 [-]        
1 25112U 97084A   24045.50314855  .00004726  00000+0  14688-2 0  9992
2 25112  45.0135 186.5973 0007350 290.6883  69.3178 14.42004204370916
ORBCOMM FM10 [-]        
1 25113U 97084B   24045.50533120  .00004617  00000+0  14385-2 0  9994
2 25113  45.0146 188.3808 0005700 259.5830 100.4377 14.41930342370906
ORBCOMM FM11 [+]        
1 25114U 97084C   24045.10132216  .00004588  00000+0  14330-2 0  9999
2 25114  45.0132 190.3092 0006466 259.4695 100.5426 14.41812369370834
ORBCOMM FM12 [-]        
1 25115U 97084D   24044.78202760  .00004191  00000+0  13136-2 0  9998
2 25115  45.0136 191.5010 0005455 257.1882 102.8359 14.41785690370557
ORBCOMM FM09 [-]        
1 25116U 97084E   24045.48425189  .00004378  00000+0  13709-2 0  9992
2 25116  45.0138 188.8143 0006908 249.0455 110.9656 14.41757771370892
